latitude,longitude,place_id,street,city,state,zip,phone,store_id
40.1253,-75.1156792,ChIJOzu_RU6wxokRK9PuuJJPOIU,1495 Old York Rd,Abington,PA,19001,,# 16604
40.5697598,-80.2560412,ChIJZ8q69cBnNIgRmALQPr5p2Qg,3000 Heights Road,Aliquippa,PA,15001,724-857-4041,# 2392
40.6092005,-80.2839742,ChIJaYTrmZhoNIgRaGK4RWllqTY,2719 Brodhead Rd,Aliquippa,PA,15001,724-378-4411,# 4055
40.5761444,-75.4813162,ChIJ0xuFTUs6xIkRVytG3zdJOQQ,1802 Lehigh Street,Allentown,PA,18103,610-797-1018,# 1304
40.6126832,-75.5354944,ChIJgyG9elE3xIkRhzuRW_AYaTY,1600 N Cedar Crest Blvd,Allentown,PA,18104,,# 16840
40.6384064,-75.4401172,ChIJ27wmINQ4xIkRrhKzBDMzo7w,912 Airport Center Dr,Allentown,PA,18109,,# 17462
40.5664164,-75.5606027,ChIJZQKikFkwxIkRdVKIgVCMOeM,749 N Krocks Rd,Allentown,PA,18106,,# 17680
40.6237248,-75.4465365,ChIJ_b2chDo5xIkRfi-irliiMfU,728 Union Boulevard,Allentown,PA,18109,610-432-6303,# 2020
40.5592824,-75.5678342,ChIJsWuUfE4wxIkRUeV0gwZ3YDQ,958 South Krocks Road,Allentown,PA,18106,610-530-7385,# 2267
40.5924344,-75.59007,ChIJiYQhQxYxxIkR-L01DOzzjqk,5801 Tilghman St.,Allentown,PA,18104,610-398-3228,# 4234
40.5979969,-75.5246325,ChIJPZm0rAc6xIkRJ9fTK93Hv6I,3010 Tilghman Street,Allentown,PA,18104,610-776-6551,# 461
40.5785799,-75.4542274,ChIJhelNPes7xIkRtALM2zdgvEg,315 West Emaus Avenue,Allentown,PA,18103,610-791-4404,# 858
40.6042477,-75.4940513,ChIJkT_xYIg5xIkRS_lI6nDPxUs,1601 W. Liberty Street,Allentown,PA,18102,610-820-9737,# 974
40.5993494,-79.9480807,ChIJG6k0xNiNNIgR-xkSpekpRaU,4849 William Flynn Hwy.,Allison Park,PA,15101,724-443-2418,# 7611
40.4819606,-78.4025746,ChIJMQQwOGyRy4kROmt3KtajIDo,200 East Plank Rd.,Altoona,PA,16602,814-944-9224,# 4013
40.139373,-75.2431205,ChIJkT5IlHy7xokRdgi-au8jJrk,7000 Butler Pike,Ambler,PA,19002,215-654-8914,# 10061
40.1566683,-75.216273,ChIJmR2keDq7xokRa4269u1zHpQ,272 E. Butler Ave.,Ambler,PA,19002,215-643-3974,# 8498
40.5888602,-80.2281666,ChIJ41d1wf5mNIgRoiu3HBzTFY4,300 8th St..,Ambridge,PA,15003,724-266-9194,# 4039
40.0111133,-75.2967549,ChIJjeYNxn3AxokR2x8cqCQUBOY,317 W. Lancaster Ave.,Ardmore,PA,19003,610-658-0737,# 1282
39.8665577,-75.4273258,ChIJ54eeFATmxokR9bf6BSdC_wY,5020 Pennell Rd.,Aston,PA,19014,610-497-2225,# 828
40.1288453,-75.431787,ChIJoSDrebOWxokR_juTYNMlZYs,2801 Egypt Rd.,Audubon,PA,19407,610-666-0512,# 5898
39.9989836,-75.2319536,ChIJYS4ZR1vHxokRjMoWdKpHsDM,101 W City Avenue,Bala Cynwyd,PA,19004,610-668-3890,# 5081
40.0213365,-75.2321801,ChIJTY2Eo7u4xokRSgdMPKrCQec,260 Rock Hill Rd.,Bala Cynwyd,PA,19004,610-667-5290,# 5346
40.8678337,-75.2038732,ChIJyYGDMmJkxIkRZMnAdhiYxoA,35 N. Main St.,Bangor,PA,18013,610-588-9425,# 1901
40.7735557,-80.3738871,ChIJDfl7fNxzNIgR0UZunhzOBpo,"2556 Constitution Blvd.,, Chippewa Mall",Beaver Falls,PA,15010,724-847-2190,# 4162
40.0177248,-78.4914436,ChIJn4l8MmJSyokRYXTrxI5JAjI,644 East Penn Street,Bedford,PA,15522,814-623-1973,# 1682
40.9106676,-77.7826207,ChIJqQKHgP2izokRN1jJXfilsOI,127 South Potter Street,Bellefonte,PA,16823,814-355-8244,# 1684
40.1397083,-79.8429248,ChIJBSxuTTAcNYgRiV9kMeUBtWc,975 Rostraver Rd.,Belle Vernon,PA,15012,724-929-9155,# 4077
40.4934355,-80.052379,ChIJyZozEv70NIgRym4cdm4FYIk,355 Lincoln Avenue,Bellevue,PA,15202,412-761-3000,# 4103
40.1298127,-74.9234804,ChIJAYsATIBSwYkRT6u0f8cRzJk,"2250 Bristol Rd., Corner Of Bristol Road And Hulmeville Road",Bensalem,PA,19020,215-757-5200,# 1281
40.135473,-74.9623403,ChIJ6xPNL6pSwYkRsgwt2OgrTNU,800 Rock Hill Dr,Bensalem,PA,19020,,# 16541
40.1353972,-74.9547983,ChIJW2HRNqZSwYkRy9o9clC45XY,3811 Neshaminy Blvd.,Bensalem,PA,19020,215-396-5690,# 1731
40.1092557,-74.9354453,ChIJZYEdKBNNwYkRINS7GWrm7co,3943 Hulmeville Rd,Bensalem,PA,19020,215-244-7002,# 2131
41.0503812,-76.2446079,ChIJaxBzqeGcxYkR2o8Md3MTz5o,700 West Front St.,Berwick,PA,18603,570-752-7462,# 1599
40.0471503,-75.4373405,ChIJzdrEqlmTxokRrS8havM21QI,550 Lancaster Avenue,Berwyn,PA,19312,610-644-7192,# 6999
40.3340413,-80.0245944,ChIJd2G3PZr5NIgRQ7RK63SEcZw,5190 Library Road,Bethel Park,PA,15102,412-833-6029,# 2447
40.643516,-75.4272803,ChIJT8ES5zE_xIkRClF-mJb84u0,"2434 Catasauqua Road, Shoppers Village",Bethlehem,PA,18018,610-868-5122,# 1036
40.6460579,-75.3454538,ChIJ1Zb4O-E_xIkR38GtLm85asc,2651 Easton Avenue,Bethlehem,PA,18017,610-865-3671,# 1311
40.6335275,-75.3678787,ChIJx4LlBbc_xIkRE4AC1BSmpbI,327 Woodlawn Avenue,Bethlehem,PA,18018,610-691-4460,# 1908
40.610779,-75.3827822,ChIJn-R2kF4-xIkRAVhEpT6qLAg,305 West Fourth Street,Bethlehem,PA,18015,610-691-4085,# 2459
40.6824244,-75.3881257,ChIJT-AU_IlAxIkRlzP_yxDuNhU,6050 Sterner's Way,Bethlehem,PA,18017,610-837-4220,# 5533
40.6328631,-75.396094,ChIJ66GBmAM_xIkRWFblIp9l6qg,1457 8th Avenue,Bethlehem,PA,18018,610-861-0152,# 820
41.0936041,-75.592175,ChIJc302yd77xIkRjSd7WtuHV6M,5674 Route 115,Blakeslee,PA,18610,570-643-7286,# 2262
40.4523713,-75.8917664,ChIJ-4OOeYLXxYkRl3YHI_46t3o,8565 Allentown Pike,Blandon,PA,19510,610-916-2499,# 5065
41.0303885,-76.3458103,ChIJ35Ag-fODxYkRoWw5YOtyslY,823 New Berwick Highway,Bloomsburg,PA,17815,570-784-8061,# 1590
40.1492296,-75.307736,ChIJJ39ZPRC9xokRwNkIQ8fWaSk,1799 Dekalb Pike,Blue Bell,PA,19422,610-239-1681,# 3011
40.1661562,-75.2911915,Eik5MjkgRGVrYWxiIFBpa2UsIEJsdWUgQmVsbCwgUEEgMTk0MjIsIFVTQSIxEi8KFAoSCcn3l9fZvMaJEctVhnzeGebIEKEHKhQKEgnhfgfI1rzGiREV_XoPYf9mpw,"929 Dekalb Pike, At Skippack Pike",Blue Bell,PA,19422,610-292-2142,# 3799
39.8398967,-75.4421421,ChIJJx1Mb9HlxokRFJNYTuiG9Tw,"3601 Chichester Rd, Suite 105",Boothwyn,PA,19061,610-497-2194,# 2000
40.3288567,-75.6242396,ChIJlwSELmOBxokR9E6GNZibiqk,"801 E. Philadelphia Ave., Unit 1",Boyertown,PA,19512,610-369-9375,# 1310
41.956857,-78.644528,ChIJQbG6FjCAzYkRjrN1e6mZdY8,10 Davis St,Bradford,PA,16701,814-362-4559,# 4270
40.924537,-75.3937949,ChIJN7NbuItexIkRIrBJmDBMg60,"Rt. 115 And 209, Hc2, Box 1120",Brodheadsville,PA,18322,570-992-6454,# 1320
39.8691971,-75.3834355,ChIJMyDuIX_oxokR78LzyogUjgc,3298 Edgemont Ave.,Brookhaven,PA,19015,610-876-5100,# 903
39.9818149,-75.3578877,ChIJ6wgVzWPqxokRsgmlMjM5XsI,"2507 W. Chester Pike, Corner Of Church Lane",Broomall,PA,19008,610-325-5301,# 2756
39.9599164,-75.3554056,ChIJSXewNhLqxokR5K85r_ZxgGM,1991 Sproul Rd.,Broomall,PA,19008,610-325-8422,# 5462
40.0253842,-75.3271427,ChIJpe4jLPe_xokRFwnTImIMbw0,1218 E. Lancaster Ave,Bryn-Mawr,PA,19010,610-519-1920,# 6902
40.6324025,-77.5712108,ChIJX_7BZWa1zokRaEDNpQELrLE,404 N. Logan Blvd.,Burnham,PA,17009,717-248-3991,# 1687
40.8755875,-79.941474,ChIJi2ICCSJ9M4gR86mP0vwl_o8,200 Butler Commons,Butler,PA,16001,,# 16752
40.2308512,-76.8928195,ChIJocw3ZcDByIkROB53j7lxPjk,1116 Carlisle Rd.,Camp Hill,PA,17011,717-612-5062,# 1630
41.5669471,-75.5120975,ChIJEcnGJOzNxIkRLeHq5PjJKfw,"88 Brooklyn Street, Westside Shopping Mall",Carbondale,PA,18407,570-282-1650,# 1600
40.1919351,-77.1942552,ChIJIc1HnNjhyIkR0D0u_nzwV1w,765 South West Street,Carlisle,PA,17013,717-243-1384,# 1646
40.197608,-77.1556389,ChIJXVsuQKzhyIkRo-Ug6zk9zxI,246 Westminster Dr,Carlisle,PA,17013,,# 17185
40.4102615,-80.0819384,ChIJe_2opcz3NIgRGZCB0k1redQ,401 Chestnut St.,Carnegie,PA,15106,412-279-5020,# 3999
40.2783053,-75.2145863,ChIJ_-btFuWmxokRqmMU7kbLjYc,298 West Butler Pike,Chalfont,PA,18914,215-822-5383,# 2458
40.2439324,-75.1909254,ChIJ-fe_DHimxokRxu0vDn55w3o,3265 County Line Rd.,Chalfont,PA,18914,215-996-9809,# 5241
39.9350602,-77.6642607,ChIJNxnavNKdyYkRZk8gE3Uhfys,125 West Washington St.,Chambersburg,PA,17201,717-263-9893,# 1649
39.9430631,-77.6320215,ChIJN3-FNGieyYkR6es8gzWuv_g,913 Norland Ave,Chambersburg,PA,17201,,# 17317
39.9156638,-77.6556259,ChIJc78r9yCcyYkRGL9WkGWFSpw,840 Wayne Avenue,Chambersburg,PA,17201,717-263-6788,# 1918
40.0504773,-75.1174222,Ei40NSBDaGVsdGVuaGFtIEF2ZSwgUGhpbGFkZWxwaGlhLCBQQSAxOTEyMCwgVVNBIjASLgoUChIJMQR2sBm3xokRmbdA4Odl8VYQLSoUChIJV6lMpBm3xokRHOSQIZUUV_M,"45 Cheltenham Ave,",Cheltenham,PA,19012,215-782-1501,# 958
40.0288039,-75.6294693,ChIJ_UqT1YT0xokRZjzHgs0FugM,104 N. Pottstown Pike,Chester Springs,PA,19425,610-458-3401,# 2951
41.213148,-79.3820791,ChIJK9Hi7jQzM4gRnYZKhr3Ijck,700 Main Street,Clarion,PA,16214,814-226-7100,# 1680
41.4957016,-75.7059826,ChIJD8QvsgPYxIkRbhJmF4uAtFU,101 North State Street,Clarks Summit,PA,18411,570-587-1205,# 1597
41.0269414,-78.4365591,ChIJq4bFxoVCzIkRCCgbnNCfw2Y,3035 Park Place,Clearfield,PA,16830,814-765-1241,# 1685
40.0075379,-75.7891991,ChIJz8zcNbdexokRJyEGTO3eK70,101 Reecesville Rd,Coatesville,PA,19320,610-466-7166,# 1805
40.1801493,-75.4565941,ChIJtYeBy7-QxokRXnHWrFFHt3I,55 Park Ave.,Collegeville,PA,19426,610-409-2604,# 2688
40.0355727,-76.4977857,ChIJqXKIQwOdyIkRpZidQ2NHhMA,615 Locust Street,Columbia,PA,17512,717-684-6361,# 1670
40.0782542,-75.3014032,ChIJpffeRGe-xokRWu3GaqDuaY8,613 Fayette St.,Conshohocken,PA,19428,610-238-4763,# 3252
40.5178028,-75.387818,ChIJBx6YHig9xIkRBIsa7PbUAg0,7001 North Highway 309,Coopersburg,PA,18036,610-282-4104,# 1093
41.9339882,-79.6536753,ChIJV3otHVejMogR-ub9f2fo41s,330 W. Columbus Ave.,Corry,PA,16407,814-664-2617,# 5098
40.6885494,-80.0845715,ChIJrb5iUAmINIgRiPTi3AActmk,1717 Route 228,Cranberry Township,PA,16066,,# 16607
40.6826471,-80.1244517,ChIJ83JZwcZiNIgRE43fiE9Lz5I,1181 Freedom Rd.,Cranberry Township,PA,16066,724-742-1888,# 4029
41.1699027,-75.2715127,ChIJlXhugbWTxIkRzz8UVqDKn6M,958 Route 390,Cresco,PA,18326,570-595-7131,# 1270
40.0948233,-74.9054497,ChIJ96ZIkrBNwYkRUDit89hP8Kc,"901 Bristol Pike, Corner Of Newportville Road",Croydon,PA,19021,215-785-6345,# 2880
41.3374374,-75.9627435,ChIJD0vqOFkWxYkReG_SpvnFgac,5 Church Street,Dallas,PA,18612,570-675-1076,# 1594
40.9654594,-76.6165684,ChIJu0lz8zhlz4kR5fj3cQUTtg8,1101 Mill St.,Danville,PA,17821,570-275-1811,# 1582
41.4694649,-75.6087604,ChIJf2MJZBfaxIkR4fQa9nl-HyE,1600 Main St.,Dickson City,PA,18519,570-383-3211,# 1615
41.4676567,-75.6388112,ChIJCSoTYZTZxIkRHrQZ-HJX5V0,1140 Commerce Blvd,Dickson City,PA,18519,,# 16806
40.2617796,-75.7293807,ChIJkw8vJW59xokRiAuKsPvp8MA,1149 Ben Franklin Hwy. West,Douglassville,PA,19518,610-385-4300,# 7838
39.9838538,-76.8253344,ChIJo7kd0MqMyIkRB_Qx2ch4Gyg,"3210 Carlisle Rd, Route 74/davidsburg Road",Dover,PA,17315,717-292-6665,# 6042
39.9996538,-75.7236111,ChIJE_IzaVBfxokR4S4N8Z9EX0g,"751 West Lancaster Avenue, Corner Of Lloyd Avenue",Downingtown,PA,19335,610-518-1841,# 2495
40.0287547,-75.6834895,ChIJtXAibQn1xokR-ZHv8PEInD8,599 Bell Tavern Blvd.,Downingtown,PA,19335,610-873-5480,# 3598
40.3410751,-75.1518475,ChIJdS8JAcsCxIkRXXLfXxmygSg,1456 Ferry Rd.,Doylestown,PA,18901,215-340-2613,# 2782
40.3061025,-75.1296822,ChIJk2cKyCKoxokRP1lF2vwmoTs,160 S. Main St.,Doylestown,PA,18901,215-230-1690,# 7863
40.3330885,-75.1331486,ChIJYdSZTr4CxIkRGjA0R3HRg4k,4361 Swamp Road,Doylestown,PA,18901,215-348-7803,# 956
40.1432046,-75.1694041,ChIJEeykVLy6xokRkPXMOXLdyzI,1678 Susquehanna Rd.,Dresher,PA,19025,215-628-2712,# 7253
39.9564795,-75.3218585,ChIJ-_qFr-vBxokRwkw5sQsTf30,5001 Township Line Road,Drexel Hill,PA,19026,610-853-2962,# 1296
39.9594903,-75.2882701,ChIJDxKsDgzBxokR4JTHOZBc15g,802 Lansdowne Avenue,Drexel Hill,PA,19026,610-853-6018,# 2408
41.1285896,-78.7632946,ChIJC-ImNuLzzIkRP0esS18qDpU,405 W. Dubois Ave.,Dubois,PA,15801,814-371-9480,# 5709
41.4180575,-75.6339959,ChIJOVbGtU_ZxIkR6ly56t7T28g,347-349 Blakely Street,Dunmore,PA,18512,570-342-9138,# 1612
40.7084551,-75.2772088,ChIJ1y1gVLlrxIkR5tvJL33ue1Q,3519 Nazareth Rd,Easton,PA,18045,610-258-3961,# 1305
40.7127184,-75.2849551,ChIJYdymubdrxIkRfjAoAyvogWs,3835 Dryland Way,Easton,PA,18045,,# 17563
40.6489231,-75.299579,ChIJJTqF1ygVxIkRiQrbzU5x3WQ,4950 Freemansburg Ave.,Easton,PA,18045,610-694-8871,# 1787
40.7133066,-75.2195487,ChIJ27LBiDxsxIkRAKQZD5AetoU,215 Town Center Blvd.,Easton,PA,18040,610-250-3651,# 3617
40.6767056,-75.2117225,ChIJAVmojvpsxIkRvSzDlq9mnhE,620 Old Philadelphia Rd.,Easton,PA,18042,610-559-2630,# 7670
40.6893032,-75.2325461,ChIJaQBNRWJsxIkRqmVeI6BePY0,1520 Northampton Street,Easton,PA,18042,610-252-8530,# 960
40.9951261,-75.1820801,ChIJ09K34V6IxIkRoWLNCnLfhLM,250 S. Courtland St.,East Stroudsburg,PA,18301,570-424-0830,# 1309
41.0625277,-75.07146,ChIJ51nC9YeExIkR-2QpZToeD0M,239 Fox Run Lane,East Stroudsburg,PA,18302,570-223-6892,# 2002
41.0544704,-75.0933264,ChIJyYrAJ0WExIkRvIH5A-8Buys,5122 Milford Rd.,East Stroudsburg,PA,18302,570-223-2563,# 3998
41.875533,-80.1310319,ChIJWaUPNEphMogRj-QnVR_y5_A,124 Erie St.,Edinboro,PA,16412,814-734-5207,# 5095
40.9774179,-75.44476,ChIJB2qWSrdYxIkRN1Z6gkeY0Fc,3192 Route 115,Effort,PA,18330,570-688-2302,# 3062
40.1396532,-76.5866801,ChIJyQgfYfyYyIkRcVMS2ylD0sI,1575 South Market Street,Elizabethtown,PA,17022,717-367-2173,# 1672
40.5581139,-76.7892825,Eiw0Njg2IFVTLTIwOSBjLCBFbGl6YWJldGh2aWxsZSwgUEEgMTcwMjMsIFVTQSIdGhsKFgoUChIJWceCUvhKz4kRNFf-aySmVwISAWM,"4686 Rte 209, Lykens Valley S/c",Elizabethville,PA,17023,717-362-9018,# 1640
40.8608643,-80.2876617,ChIJZ64ZAfB3NIgRywRI2nDrze8,120 5th Street,Ellwood City,PA,16117,724-752-2588,# 5710
40.531659,-75.4988706,ChIJMS_1tcg6xIkRFjmELUFIXok,702 Chestnut St.,Emmaus,PA,18049,610-965-5980,# 1178
40.2869097,-76.9475171,ChIJnTsa85HDyIkRbHKKKhpGP-0,744 Wertzville Rd,Enola,PA,17025,717-728-4701,# 2321
40.1957763,-76.1715359,ChIJL-82RBsUxokRwayzsHMoo_I,440 N. Reading Rd.,Ephrata,PA,17522,717-733-1818,# 5721
40.0974408,-75.2124437,ChIJj0OmjM-7xokRENdVWVwXjF0,920 Bethlehem Pike,Erdenheim,PA,19038,215-233-4485,# 791
42.1201389,-80.1115803,ChIJWUEKI_d_MogRNOhHb6rmr9g,1216 West 6th St,Erie,PA,16507,814-844-6265,# 11421
42.0549281,-80.0950451,ChIJJ7LeNqaAMogR9mWfMoJeFZs,6700 Peach St,Erie,PA,16509,,# 16631
42.0741477,-80.1445156,ChIJlVMXQPZ-MogR19Z-J_avEg0,3750 Sterrettania Road,Erie,PA,16506,814-835-4984,# 2346
42.1005894,-80.1453753,ChIJa7O5qAl_MogRtacxN4reSlo,1111 Peninsula Dr.,Erie,PA,16505,814-833-4354,# 2678
42.1079664,-80.0496066,ChIJ0Z9Hkc2BMogRqCTmayqE2z8,3800 Pine Ave,Erie,PA,16504,814-825-1564,# 3168
42.1272419,-80.0723943,ChIJp0rzT9x_LYgR71-J5IrVP8M,410 East 12th Street,Erie,PA,16503,814-456-7071,# 4082
42.0996888,-80.1057356,ChIJbQ62b9x_MogRUFsjvJij_M0,1535 West 26th Street,Erie,PA,16508,814-461-1215,# 7684
41.3256265,-75.8100865,ChIJr8L7ns0YxYkRIGlfcn2kKl0,960 Wyoming Ave.,Exeter,PA,18643,570-654-7422,# 1616
40.0307403,-75.630956,ChIJkR5QE4X0xokR9mRm3UGXKcs,141 West Lincoln Hwy,Exton,PA,19341,610-363-1008,# 10694
40.0391607,-75.6286283,ChIJp9Wjd6L0xokRmQH4Jwf6j1w,201 Sunrise Blvd,Exton,PA,19341,,# 16498
40.0520386,-75.6660871,ChIJX4kDatj0xokRmotxgbsaduw,180 Eagleview Blvd,Exton,PA,19341,,# 17542
40.0609307,-75.6540388,ChIJI862Fc30xokR6jyIdv5kAMs,105 E. Uwchlan Ave.,Exton,PA,19341,610-594-1931,# 2687
40.1695647,-74.8510784,ChIJHYOQRG1RwYkRSS7AFdiM9OE,504 S Oxford Valley Rd,Fairless Hills,PA,19030,215-945-5720,# 295
40.1471167,-74.995074,ChIJWXWkPGatxokR2EYW-tHcdtg,298 East Street Road,Feasterville,PA,19053,215-942-5141,# 2524
39.8968667,-75.3145241,ChIJ6_zoo_XCxokRQ3PzobNzLm0,1937 Macdade Blvd,Folsom,PA,19033,610-237-1302,# 2867
40.0396505,-75.5512331,ChIJ21a2A8jyxokR1zKXRoxRm48,335 Lancaster Ave.,Frazer,PA,19355,610-240-7871,# 5064
41.0166674,-75.8977347,ChIJ0ekM73ioxYkRiLWOJac_6U4,500 Centre St,Freeland,PA,18224,570-636-2520,# 10128
39.8422656,-77.2011729,ChIJW35B6KmsyYkRfxWhIneqwFY,1310 York Rd.,Gettysburg,PA,17325,717-337-2812,# 1921
40.6415947,-79.9420283,ChIJb6Q3XrWPNIgRJSWUKADqMtw,550 Grandview Crossing Dr,Gibsonia,PA,15044,,# 17336
40.2986991,-75.585252,ChIJkxVBBYaDxokRB3BaTD6bdP8,2000 Swamp Pike,Gilbertsville,PA,19525,610-705-4306,# 4773
39.8804646,-75.527488,ChIJE2CisFTlxokR-HJzZ42ES_8,600 Hatton Dr,Glen Mills,PA,19342,,# 17252
39.8793995,-75.529533,ChIJJXMNcK_7xokR9aCaZx2rSFg,100 Maris Grove Way,Glen Mills,PA,19342,610-387-4540,# 48331
39.8857992,-75.5290253,ChIJIfJBCwDwxokRmQkXdW4RdhA,863 Baltimore Pike,Glen Mills,PA,19342,610-361-2822,# 4984
39.9070035,-75.2867777,ChIJwyEwpLHDxokRii9JLdjKfhk,159 N. Macdade Blvd.,Glenolden,PA,19036,610-522-0600,# 675
40.1138047,-75.1544013,ChIJn-tR_oGwxokRQI6HCN8JuN8,2622 Jenkintown Road,Glenside,PA,19038,215-887-6122,# 919
39.7917133,-77.7313931,ChIJzdW9lTqQyYkRKnz0NjlWMm8,305 W. Baltimore St.,Greencastle,PA,17225,717-593-0170,# 142
40.3016591,-79.5240738,ChIJ5eyf0jfQNIgRQuCGoIxXqyY,806 East Pittsburgh St,Greensburg,PA,15601,724-836-7041,# 4115
41.3137351,-75.3180894,ChIJgbm4C06-xIkRyRjPyp4k65s,"657 Hamlin Hwy. Po Box 700, Route 191 And 590 Hamlin Corner",Hamlin,PA,18427,570-689-5011,# 748
39.8099786,-76.9897776,ChIJc-dANhhayIkRwlbvIDfHRVU,635 Carlisle St.,Hanover,PA,17331,717-637-5228,# 1653
39.8269239,-76.997607,ChIJ3eibjPBZyIkRQAMo2qrM_GE,31 Wilson Ave,Hanover,PA,17331,,# 17577
40.3071032,-76.8049915,Eiw1MDAxIEpvbmVzdG93biBSZCwgSGFycmlzYnVyZywgUEEgMTcxMTIsIFVTQSIxEi8KFAoSCROD0XyTuMiJEfZ0hBYRP1okEIknKhQKEgnrDujSDbDIiRFqkRDp5ewHng,5001 Jonestown Road,Harrisburg,PA,17112,717-545-4229,# 1624
40.3350113,-76.8411771,ChIJxZ-JaJrHyIkRq2zM7N6EyGQ,1600 Alexandra Lane,Harrisburg,PA,17110,717-545-9188,# 1641
40.3094557,-76.7985395,ChIJATdax-24yIkRnWKgM3B-jxc,5125 Jonestown Rd Ste 331,Harrisburg,PA,17112,,# 16602
40.246541,-76.8063183,ChIJTZtzYnO_yIkRjmyXK5vRd58,4600 High Pointe Blvd,Harrisburg,PA,17111,,# 17266
40.320571,-76.7868036,ChIJ63nuFla4yIkRGxRpCEyEErU,"6007 Allentown Blvd, Paxton Square",Harrisburg,PA,17112,717-540-5893,# 1917
40.2603457,-76.7762965,ChIJTzyLUN6-yIkR_5ZRozotBLs,"6301 Grayson Rd, Swatara Square S/c",Harrisburg,PA,17111,717-561-2658,# 1922
40.2573802,-76.8206482,ChIJveSe82O_yIkRWwEj6foSQQA,3865 Derry Street,Harrisburg,PA,17111,717-558-1601,# 2370
40.2984826,-76.8467352,ChIJsxXWr0fHyIkRKcHxff0DSRA,550 North Progress Ave.,Harrisburg,PA,17109,717-657-1149,# 8979
40.1725681,-75.0724762,ChIJSUCcBnKuxokRvkRxzPZtUtQ,"765 East County Line Rd.,",Hatboro,PA,19040,215-322-2443,# 4662
40.2719475,-75.2889648,ChIJs2KOCHShxokRCl7Sl7_-7vo,1530 Cowpath Rd.,Hatfield,PA,19440,215-361-2542,# 5762
39.9864459,-75.312474,ChIJX3lG0UjAxokRNAwtV2YwcKI,41 West Eagle Road,Havertown,PA,19083,610-853-1768,# 1237
39.9726062,-75.3147519,ChIJWWAvi7bBxokRDpFQXJjV3pI,1109 West Chester Pike/pep Boys Bldg,Havertown,PA,19083,610-446-5245,# 147
41.4759224,-75.1821189,ChIJUTz6sbSxxIkR3BxFApf-8AY,590 Palmyra Twnshp/rte 6/lake Region Ctr,Hawley,PA,18428,570-226-6550,# 53
40.9538309,-75.9812471,ChIJ5V7D1XGkxYkR9fBWD0F4OOo,"64 South Locust St.,",Hazleton,PA,18201,570-454-5521,# 1891
40.9804183,-75.9794784,ChIJO7EOYR2kxYkRmEjDepx5ejw,1185 N Church St.,Hazle Township,PA,18202,570-455-8301,# 1572
40.5884607,-75.3415655,ChIJEcNqCwI-xIkRZQjylhTrzt0,1332 Main Street,Hellertown,PA,18055,610-838-5611,# 2115
40.2777666,-76.6642384,ChIJPVxYgEK7yIkRB4XZq7wVvlY,130 Hockersville Road,Hershey,PA,17033,717-533-3364,# 1650
40.405161,-79.8908956,ChIJw9E97CbuNIgRjHKnN1_wOeQ,360 Waterfront Dr E,Homestead,PA,15120,,# 16601
41.5680465,-75.2528738,ChIJq7PDr5y0xIkRsJ4-4It7_KY,"202 4th St.,",Honesdale,PA,18431,570-253-1730,# 1587
40.1712886,-75.1293459,EiwxMDEgRWFzdG9uIFJkIGIsIFdpbGxvdyBHcm92ZSwgUEEgMTkwOTAsIFVTQSIdGhsKFgoUChIJZeHhlsGvxokR7-7yquplBHUSAWI,"101 Easton Rd., Suite B",Horsham,PA,19044,215-682-2016,# 1191
40.2653165,-76.7047453,ChIJ6Tkfqna8yIkRtBDcO_LpFHI,131 East Main Street,Hummelstown,PA,17036,717-566-3209,# 11040
40.1198309,-75.0689172,ChIJMZK6HY-xxokRfMDekn_gqfg,670 Welsh Rd.,Huntingdon Valley,PA,19006,215-938-8731,# 2110
40.6096397,-79.1893727,ChIJm-LefFJFy4kR-ZLmrLJUxGc,2501 Warren Rd,Indiana,PA,15701,724-349-5620,# 4000
40.2540247,-75.0886934,EiQyMTkzIFlvcmsgUmQsIEphbWlzb24sIFBBIDE4OTI5LCBVU0EiMRIvChQKEgmjE0wWFKnGiRFbDslMs5mxnxCRESoUChIJ1QgXRPuuxokRrR8HpxHL5tk,2193 York Rd,Jamison,PA,18929,215-491-7176,# 2040
40.1059032,-75.1236159,ChIJyefSuPGwxokRtUyjhAilC_E,835 Old York Rd.,Jenkintown,PA,19046,215-886-2923,# 1193
41.2015259,-77.2738742,ChIJKf-hRkX_zokRGEmm8NxDaHo,1321 Allegheny St.,Jersey-Shore,PA,17740,570-398-9861,# 6764
41.4874261,-78.6777225,ChIJSUFrRJgHzYkRi8ll_X7TvJI,236 Grant Street,Johnsonburg,PA,15845,814-965-2566,# 1686
40.3162412,-78.9561348,ChIJw1aXfOYWy4kR_KBtGSZmlYc,1650 Menoher Blvd.,Johnstown,PA,15905,814-255-2792,# 10249
40.2791779,-78.8627472,ChIJE4yHnWoQy4kR8K12sUPfz08,1198 Scalp Ave.,Johnstown,PA,15904,814-266-1454,# 10250
39.8620376,-75.6801721,ChIJW7Tanvf4xokR5qLbCi3npJg,870 E. Baltimore Pike,Kennett Square,PA,19348,610-444-9081,# 1074
40.0954635,-75.3661764,ChIJycvu3cKVxokR6H6aVL2icHw,160 W Dekalb Pike,King Of Prussia,PA,19406,,# 17585
40.0913769,-75.3584798,ChIJbQO1y-6VxokRZeyXGwKMeRQ,312 South Henderson Rd,King Of Prussia,PA,19406,610-205-1264,# 2481
41.2608334,-75.8970541,ChIJtZFJYnYaxYkRJrCTkGa5bQg,620 Market Street,Kingston,PA,18704,570-331-4011,# 2133
40.5174995,-75.7755307,ChIJw_69KLPTxYkRisEK1ZyVfA4,"45 Constitution Blvd, Village Square S/c",Kutztown,PA,19530,610-683-7349,# 1301
40.0372986,-76.2695447,ChIJu3r9YDU7xokREfoOX9xaSnc,1624 Lincoln Hwy East,Lancaster,PA,17602,717-394-5121,# 1662
40.0567326,-76.3991861,ChIJWxzZx9wmxokRd6Xa_YRTesE,630 Centerville Road,Lancaster,PA,17601,717-898-0308,# 1668
39.9915817,-76.2862421,ChIJ9dwl-EQlxokRw0W9eERNm_k,2410 Willow Street Pike,Lancaster,PA,17602,717-464-3736,# 1669
40.0647242,-76.3060138,ChIJL1bn1HwjxokRZIRqZ0ZTUVw,1507 Lititz Pike,Lancaster,PA,17601,717-397-0369,# 1671
40.0264119,-76.3257101,ChIJPYy2BlMkxokRmj5Q2Kct14c,1278 Millersville Pike,Lancaster,PA,17603,717-397-2481,# 1675
40.026628,-76.2039116,ChIJGXqJBL87xokRXMg0FmpiouU,2385 Covered Bridge Dr,Lancaster,PA,17602,,# 17160
40.0680273,-76.3112616,ChIJpZiP-XsjxokRUL1Fv3GzXpg,1589 Fruitville Pike,Lancaster,PA,17601,,# 17723
40.0439249,-76.3085227,ChIJTVxRHI0kxokR_R5Ovsfd3A0,32-54 West Lemon Street,Lancaster,PA,17603,717-394-4013,# 2158
40.0385087,-76.3596585,ChIJmygjISYkxokRmdJrGNhuP1o,2020 Columbia Avenue,Lancaster,PA,17603,717-239-5301,# 2371
40.0629771,-76.3585813,ChIJ4cVd-wMkxokRpNQH6K4sTf8,2110 Spring Valley Rd.,Lancaster,PA,17601,717-299-4144,# 4060
40.0498038,-76.3170068,ChIJkx8K3IkkxokRVjpTCJpjBdA,551 Harrisburg Ave.,Lancaster,PA,17604,717-391-9503,# 5090
40.0898018,-76.2801788,ChIJJ4QFzi8jxokRWHvZtFYb6k8,2363 Oregon Pike,Lancaster,PA,17601,717-560-1499,# 8495
39.8078891,-75.7505182,ChIJEaxzqgNVxokR9BrSu5h3LhQ,730 Newark Rd.,Landenberg,PA,19350,610-268-1214,# 7183
40.0959964,-76.4098079,ChIJe7tX3h8hxokRptuNRMlQI90,"301-d Main St, Hempfield S/c",Landisville,PA,17538,717-898-6834,# 2053
40.1737816,-74.9542585,ChIJhfBgvidTwYkR7xqlVvr8YNg,1862 West Maple Avenue,Langhorne,PA,19047,215-750-3950,# 1207
40.1761897,-74.8779418,ChIJ3fHXItlTwYkR45glB7oIqS8,2331 E Lincoln Hwy,Langhorne,PA,19047,,# 16499
40.2412433,-75.3035446,ChIJb9UnAzeixokRMqPEnu1i8Y4,840 Valley Forge Rd.,Lansdale,PA,19446,215-362-6303,# 1379
40.2216648,-75.3018397,ChIJDyAY6laixokRQZ0-Mj2mJZs,791-799 Sumneytown Pike,Lansdale,PA,19446,215-616-4632,# 2523
40.2628981,-75.3161717,ChIJh904GouhxokRnLd29y4sJpM,"2333 Welsh Rd.., Ralph's Corner Shopping Center",Lansdale,PA,19446,215-855-1900,# 338
40.2568475,-75.2366472,ChIJa-OufK-mxokRmcozhej_Rqo,"548 Doylestown Rd., Corner Of Route 202 And County Line Road",Lansdale,PA,19446,215-997-2852,# 987
39.9397143,-75.2662722,ChIJHWIJY1zBxokRUcSC-CGqVHU,"119 E. Baltimore Ave., Corner Of Union Avenue",Lansdowne,PA,19050,610-622-8191,# 3142
40.2858429,-79.379377,ChIJ44NyOzUty4kRVfBpMlc6aPg,1706 Theatre St.,Latrobe,PA,15650,724-537-5571,# 4066
40.3387888,-76.4516993,ChIJhWs7l6ECxokRGguwwFrAD9o,2200 West Cumberland St.,Lebanon,PA,17042,717-273-9373,# 1631
40.3112679,-76.4231356,ChIJ6RmckzEdxokRyNqjwoFXJ2o,"1760 Quentin Rd, Cedar Crest Square",Lebanon,PA,17042,717-273-7824,# 1914
40.345262,-76.3959672,ChIJQ-0Etg8DxokRdwFsWWRmDjk,"833 Bowman St, Promenade @ Lebannon East",Lebanon,PA,17046,717-274-1463,# 1920
40.3897727,-75.9966996,ChIJFQH6O9R1xokRsTruud7HvnQ,906 W. Leesport Rd.,Leesport,PA,19533,610-208-8612,# 1769
40.2405632,-76.9068743,ChIJXYIcK47ByIkRgklBwx0xwOA,1200 Market Street,Lemoyne,PA,17043,717-761-1995,# 1622
40.1549529,-74.8561501,ChIJJ2xsr55RwYkRxxnJVnl6sLY,4214 Woodbourne Rd,Levittown,PA,19057,215-269-2360,# 2554
40.9623801,-76.8932186,ChIJQ2pxvLcTz4kR0fD3VUD0vFo,350 North 10th St.,Lewisburg,PA,17837,570-523-3261,# 1604
40.5983505,-77.5736846,ChIJj5nHq7pKyYkR2z-7sBWlWp4,33 E Market Street,Lewistown,PA,17044,717-248-0921,# 1677
40.2107675,-75.4983701,ChIJbbEdL5qaxokRLjnNh_KKn1o,1824 E Ridge Pike,Limerick,PA,19468,,# 17214
40.2378033,-75.5370865,ChIJAQCwKDCFxokRRc8lEYl7BQQ,"5 Kugler Road, Building 100",Limerick,PA,19468,610-495-1000,# 2690
40.1293689,-76.3057423,ChIJ780S15EixokRojJ2eToOTPI,1052 Lititz Pike,Lititz,PA,17543,717-626-4115,# 1667
40.132346,-76.3076424,ChIJtxzDvY8ixokResbxQgZX7jA,960 Lititz Pike,Lititz,PA,17543,,# 17569
40.165886,-76.3074162,ChIJB_HW7lwYxokRIBBTvjTl0lY,385 North Broad St.,Lititz,PA,17543,717-627-0081,# 2297
41.1354368,-77.4523593,ChIJOdCQgkHxzokR8lTZPecJPms,"311 Bellefonte Ave,",Lock Haven,PA,17745,570-748-8260,# 1681
40.5194314,-75.5666706,ChIJ3xEaXM4vxIkRJ6rM6fhl5bs,"3295 Pa Route 100, The Shoppes At Macungie",Macungie,PA,18062,610-967-5684,# 2296
40.0487055,-75.520573,ChIJbdONaaySxokR86coBxYqbw8,455 Carnegie Blvd,Malvern,PA,19355,,# 17564
40.041128,-76.7241375,ChIJESSkd_CRyIkRX8R6CpEvJ3o,4035 N. George St.,Manchester,PA,17345,717-266-2212,# 2575
40.1716304,-76.383579,ChIJ9xjsg0AfxokRtKWGhd7NawE,"129 Doe Run Road, Po Box 158",Manheim,PA,17545,717-665-7171,# 1665
41.8121418,-77.0812241,ChIJ3QW7XBjWz4kRPscg8_Uo58w,"197 North Main St., Mansfield Plaza",Mansfield,PA,16933,570-662-2615,# 1679
40.1808831,-75.1821394,ChIJFeS6QT6lxokRkCaA0nJyvGQ,890 Welsh Road,Maple Glen,PA,19002,215-628-6374,# 2496
40.6921521,-80.0189578,ChIJ78CvRAOGNIgR0O_Dh-_9qBo,558 Pittsburgh St.,Mars,PA,16046,724-625-5577,# 2589
39.8662702,-79.8920686,ChIJM0bzvDRtNYgRcGhUMQxMTyc,1845 Mcclellandtown Rd,Masontown,PA,15461,724-583-2080,# 5749
40.4514298,-80.1342225,ChIJUXTcLdJYNIgRdXlixE07koU,5703 Steubenville Pike,Mckees Rocks,PA,15136,412-788-4676,# 258
40.2729933,-80.1282904,ChIJTTgBhbhVNIgRr0ZoM1_h_Ho,3870 Washington Rd.,Mcmurray,PA,15317,724-941-7680,# 5101
41.6399115,-80.1476085,ChIJVwl9G3RXMogRiikAn96uVf4,"392 North St.,",Meadville,PA,16335,814-333-6370,# 5099
40.2115764,-77.005121,ChIJTxCkKQnoyIkRY98rJtTq7sQ,30 E. Simpson St,Mechanicsburg,PA,17055,717-766-2536,# 1626
40.1816549,-76.9873927,ChIJ6aZEU_XoyIkRaybwl0Xm3K8,123 Gettysburg Pike,Mechanicsburg,PA,17055,717-697-0359,# 1636
40.2367071,-76.971597,ChIJKyBJFYzCyIkREgwMe-RFxdI,105 S. Sporting Hill Rd.,Mechanicsburg,PA,17050,717-763-4860,# 1639
40.2487957,-77.0089109,ChIJY6RGkczCyIkRR5P8YtEsh04,6416 Carlisle Pike,Mechanicsburg,PA,17050,,# 17280
40.2403501,-77.053703,ChIJ9Wr8gnfdyIkRu2F7FHZzJA0,6706 Carlisle Pike,Mechanicsburg,PA,17050,717-697-1645,# 5991
39.915777,-75.383767,ChIJwxWe8qjpxokRJfBsiJAGdbw,306 East Baltimore Ave.,Media,PA,19063,610-566-8400,# 2173
39.9114768,-75.4397369,EiQzIFMgUGVubmVsbCBSZCwgTWVkaWEsIFBBIDE5MDYzLCBVU0EiMBIuChQKEgnz26vRK-_GiRGZrpyjQwtsmRADKhQKEglNjEUuKu_GiRHZfnZgoD-CQQ,3 S. Pennell Rd.,Media,PA,19063,610-565-7720,# 7239
40.199635,-76.7562409,ChIJ2cXFXR--yIkRk_5mX8lOUsc,1565 W. Harrisburg Pike,Middletown,PA,17057,717-944-9681,# 1625
40.9228193,-77.0342696,ChIJ3-cjV78Zz4kRM8NFDRaytqg,"140 East Chestnut Street, Chestnut Plaza",Mifflinburg,PA,17844,570-966-3332,# 1596
40.5341216,-76.9611105,ChIJ-f5HjNbMyIkRtGkZcgKLzDA,205 South Market Street,Millersburg,PA,17061,717-692-4725,# 1637
41.0164603,-76.8553846,ChIJgVPDUG8Nz4kRT1sfi9xXstk,37 Mahoning St.,Milton,PA,17847,570-742-3091,# 1606
40.6811861,-80.31278,ChIJnfaltK9vNIgRPUKvUw16NPY,87 Wagner Rd,Monaca,PA,15061,,# 17186
40.6912069,-80.281694,ChIJxaZWovRvNIgRoS0CnW5onuA,850 Pennsylvania Ave.,Monaca,PA,15061,724-728-4238,# 4232
40.4445587,-79.7140983,ChIJ964ALrnBNIgR1bTj_QAb9RY,1775 Golden Mile Hwy,Monroeville,PA,15146,724-327-0142,# 4045
40.4377755,-79.778967,ChIJGXgefDHqNIgRBJZdYJ4N-ic,3893 William Penn Hwy,Monroeville,PA,15146,412-372-4079,# 5890
40.2083742,-74.8021381,ChIJH3DcwUBXwYkRs4YaeBLChz8,"590 W Trenton Ave.,",Morrisville,PA,19067,215-736-9003,# 2568
40.794927,-76.4214729,ChIJieNvYC31xYkRsYAiP--JV5I,"2678 W 3rd St., West 3rd And Birch Street",Mount-Carmel,PA,17851,570-339-0141,# 1607
40.1133768,-76.5161706,ChIJ-QdVaO6eyIkR09_-kbExGWU,525 West Main Street,Mount-Joy,PA,17552,717-653-4747,# 2494
40.3824755,-80.0519749,ChIJK3YMbXb3NIgRCpMxna2VSI8,328 Cochran Rd.,Mount-Lebanon,PA,15228,412-563-3444,# 5094
40.1427169,-79.5478384,ChIJoZpVlBIoNYgRPsLEFUyr3rg,"700 Rt 819, South",Mount-Pleasant,PA,15666,724-547-4563,# 4089
41.2115053,-76.7608554,ChIJ1_QYQ-qez4kRvWSKn6LcAR4,201 Muncy Creek Blvd.,Muncy,PA,17756,570-546-8361,# 1610
41.2441686,-76.8356974,ChIJG9lHGQOiz4kRzIB8vJzm5sA,170 S Lycoming Mall Rd,Muncy,PA,17756,,# 17493
41.20546,-75.9928336,ChIJZf_9CeINxYkRLjU5hQZgfEY,555 East Main Street,Nanticoke,PA,18634,570-735-2320,# 1584
40.6182951,-79.7330646,ChIJ6xQLvoO9NIgRW_aCURVO9i8,1003 California Ave.,Natrona Heights,PA,15065,724-224-7772,# 5103
40.7311684,-75.3125213,ChIJOyJijCNqxIkRGmnRCLCj4Sw,4082 Jandy Blvd.,Nazareth,PA,18064,610-746-3412,# 5885
40.8678874,-75.8127653,ChIJnyeyLPGxxYkRApJwsOP0WsI,20 East Locust Street,Nesquehoning,PA,18240,570-669-6600,# 1325
40.9937774,-80.3344967,ChIJC8kyuPeOM4gR8g_YJykQW-Y,734 E. Washington St.,New Castle,PA,16101,724-654-3294,# 4058
41.0198314,-80.3549896,ChIJgRTIhg2OM4gR1Hc7gKb8R68,1805 Wilmington Road,New Castle,PA,16105,724-656-9185,# 5711
40.1769894,-76.8318226,ChIJLVrygc7qyIkRaE-CbFBAOe4,560 Old York Road,New Cumberland,PA,17070,717-932-0226,# 6916
40.0935418,-76.1134213,ChIJuUawGbw_xokRJN8buPV9EW8,706 West Main Street,New Holland,PA,17557,717-354-4268,# 1663
40.3649521,-74.9648514,ChIJm_2Kn1f_w4kRIerof-LUwsE,302 W. Bridge Street,New Hope,PA,18938,215-862-5917,# 6043
40.553142,-79.7579934,ChIJER8W6ZmVNIgR36-ftogZ7rs,95 Freeport St,New Kensington,PA,15068,724-337-7691,# 3165
40.225846,-74.9322943,ChIJVeT9io1UwYkRKRXPJo36BVE,200 S. Lincoln Ave,Newtown,PA,18940,215-497-9231,# 5447
40.2787478,-74.9932936,ChIJNVjEIpWqxokREfnpcmC5g5E,755 Durham Rd,Newtown,PA,18940,215-598-2890,# 7189
39.9849174,-75.4150196,ChIJNeuzEZnrxokRbOBfKuHRb1U,3930 West Chester Pike,Newtown-Square,PA,19073,610-353-2061,# 233
40.1216139,-75.3602104,ChIJs19kQBSWxokRTT3OpuRpN-8,1200 West Main Street,Norristown,PA,19401,610-277-1031,# 2032
40.117869,-75.3402613,ChIJSeWw4_W9xokR2wfmqWPA7DI,701 Dekalb Street,Norristown,PA,19401,610-278-8300,# 2046
40.6908728,-75.5014186,ChIJV0GtoI1HxIkRbU0nb3AShpY,29 West 21st Street,Northampton,PA,18067,610-261-2720,# 5743
42.2139119,-79.8428481,ChIJ2XetOTJkLYgRc9CXl_K03g4,118 W. Main St.,North East,PA,16428,814-725-9684,# 5088
40.3301883,-79.7307014,ChIJL6taC9XpNIgR8U_JeD6VYhI,8931 Rte 30,North Huntingdon,PA,15642,,# 17199
40.8906563,-76.8017667,ChIJ5-YAHhhrz4kRCBc7uhGfPN0,401 Duke Street,Northumberland,PA,17857,570-473-3221,# 1575
40.2241891,-75.2404314,ChIJb7tRb3GkxokRvl5X2aDkaY0,125 Witchwood Dr,North Wales,PA,19454,,# 16521
39.7499074,-76.0209217,ChIJrTP7CPS0x4kR5qIU11mLsL4,201 Fieldcrest Drive,Nottingham,PA,19362,610-932-8251,# 4020
41.4282322,-79.7072521,ChIJPakk9k8gM4gRxZh_-Q6P_ns,204 East Second Street,Oil City,PA,16301,814-677-4007,# 5096
41.3710952,-75.7356045,ChIJ81puuGkgxYkR44VXUYkxIn8,101 S. Main St.,Old Forge,PA,18518,570-457-2182,# 1188
40.4919242,-75.1754231,ChIJsYqhjhIQxIkRF9RpDAwzNo4,8310 Easton Rd,Ottsville,PA,18942,610-847-5915,# 8967
40.3123494,-76.5867945,ChIJP3uXmqOlyIkRTMgjhrIwJrA,717 East Main Street,Palmyra,PA,17078,717-838-8242,# 10288
40.0416973,-75.4739925,ChIJqWsViSyTxokR-hSkgiTtZL4,1776 East Lancaster Avenue,Paoli,PA,19301,610-647-4366,# 399
40.0030967,-76.093094,ChIJTUL2XIQ4xokRDg-oSuANWXE,3373 E. Lincoln Hwy.,Parkesburg,PA,19365,610-857-0507,# 10399
40.39493,-75.4993821,ChIJDaxqOrcnxIkRdMDrJVB1FB4,290 Pottstown Ave.,Pennsburg,PA,18073,215-541-2300,# 7073
40.3830808,-75.2764341,ChIJ4RJ7I_IexIkRFWCVKIND7k8,1201 N. Fifth St.,Perkasie,PA,18944,215-257-2680,# 1376
40.3823302,-75.2207698,ChIJGaHTMkEcxIkRovELBCrKoIE,402 Rt 313,Perkasie,PA,18944,215-249-4750,# 6763
39.9450451,-75.1784781,ChIJt4sKo0DGxokR0WPP8EjUiIU,2132 South Street,Philadelphia,PA,19146,215-772-1260,# 10090
39.9910936,-75.0890355,ChIJDSWvyCC2xokRc_6qI-ta-3o,2701 Castor Ave,Philadelphia,PA,19134,,# 17163
39.9499816,-75.1596583,ChIJ4zzityjGxokRT6Ay9P17edA,1122 Chestnut Street,Philadelphia,PA,19107,,# 17682
40.0458036,-75.0155691,ChIJH-SQGWK0xokR5SLBLoHXO08,8525 Frankford Avenue,Philadelphia,PA,19136,215-331-9762,# 2397
39.9182877,-75.1807009,ChIJZ-W1V97FxokRcaQnZIIcmoU,1901 West Oregon Avenue,Philadelphia,PA,19145,215-551-8265,# 2077
39.9515505,-75.1717186,ChIJo98ayjDGxokRSJQMqhDJmDM,1826-30 Chestnut Street,Philadelphia,PA,19103,215-972-0909,# 1064
40.0115579,-75.1117563,ChIJpeDLacq3xokRZ-3MhQOKxbc,"4133 G St., Corner Of Hunting Park",Philadelphia,PA,19124,215-831-9304,# 2074
39.9539045,-75.1727064,ChIJZem-yDbGxokRkNgZLyiAKpE,1919 Market St. Suite 150,Philadelphia,PA,19103,215-665-8072,# 10459
39.9515417,-75.1581618,ChIJdXEoBSnGxokRi2zE-OQCw8U,1046 Market St.,Philadelphia,PA,19107,215-592-1543,# 2866
40.0540728,-75.1932543,ChIJcZDxj6W5xokRX12s4eGHsqo,7065 Lincoln Drive,Philadelphia,PA,19119,215-242-1869,# 2986
40.0611971,-75.2372012,ChIJq9VTZDC5xokR3PJWOugNZaM,518 Port Royal Avenue,Philadelphia,PA,19128,215-483-6680,# 2783
39.9108958,-75.229443,ChIJ76-ObhTExokRdYouc3MI-WQ,6900 Lindbergh Blvd.,Philadelphia,PA,19142,215-365-5572,# 2266
40.008083,-75.210205,ChIJLRjIAYO4xokROgJdp-ECdlI,7520 City Line Ave.,Philadelphia,PA,19151,215-477-8401,# 2222
39.9542356,-75.2011919,ChIJXdvAAPjGxokRYqfdOHfVhVk,3925 Walnut St.,Philadelphia,PA,19104,215-222-0829,# 4007
39.9630446,-75.1737505,ChIJ90WNpsvHxokRf364HGzCGcc,501 North 22nd St.,Philadelphia,PA,19130,215-587-0271,# 10378
39.9596149,-75.218516,ChIJxzhYJuTGxokRp-5P5CAJ0oc,4849 Market St.,Philadelphia,PA,19139,215-474-4801,# 2704
40.0065125,-75.2119879,ChIJcweEu4K4xokRHxKkfsUNcVc,4000 Monument Rd,Philadelphia,PA,19131,,# 17207
40.0441542,-75.2330475,ChIJHRuKedm4xokRi2WnY6PyajY,7162 Ridge Avenue,Philadelphia,PA,19128,,# 17696
40.0410066,-75.2238032,ChIJ9_F8aOe4xokRx8RLtfdiNGE,"6701 Ridge Ave., Building 1",Philadelphia,PA,19128,215-483-4179,# 8984
40.0186221,-75.2143128,ChIJXfmsypG4xokRKGNPZ4GNmCg,3780 Main Street,Philadelphia,PA,19127,215-508-3607,# 2166
40.0539646,-75.1407531,ChIJdRZt92i3xokRigeTgQnqLVs,6601 North Broad Street,Philadelphia,PA,19126,215-924-1633,# 2121
40.0598408,-75.1665313,ChIJq9bVq8K5xokRWolRs0J7N_U,6344 Stenton Avenue,Philadelphia,PA,19138,215-548-1902,# 2120
40.0680543,-75.1985848,ChIJYz9FYJ65xokR6FBQcBlfeHY,7700 Germantown Avenue,Philadelphia,PA,19118,215-242-0661,# 1196
39.9535455,-75.2097076,ChIJqxTa9vDGxokRJRO0AlbjkjE,4314 Locust Street,Philadelphia,PA,19104,215-386-2093,# 2755
39.9469991,-75.1669027,ChIJMV9yKDvGxokRlkAyb3CxtJ0,1500 Spruce Street,Philadelphia,PA,19102,215-790-3290,# 1545
39.9670123,-75.1762477,ChIJjeX_lMnHxokRKTE2mLRKAeY,2320-26 Fairmount Avenue,Philadelphia,PA,19130,215-232-5262,# 2159
40.0804153,-75.1719576,ChIJbXXsBva5xokR9hf2MrWQCWE,1600 Wadsworth Avenue,Philadelphia,PA,19150,215-836-1323,# 2113
39.9091913,-75.1740095,ChIJDW8Qk-jFxokRDXBDOYpugqc,3300-10 South Broad Street,Philadelphia,PA,19145,215-463-0891,# 2398
40.043673,-75.1027791,ChIJD716cOO2xokRYuHR7l29pwU,5843-45 Rising Sun Avenue,Philadelphia,PA,19120,215-728-4146,# 2156
39.9613586,-75.1455035,ChIJ20R2hnzIxokR7htxzacMI-M,401 Spring Garden St.,Philadelphia,PA,19123,215-418-3065,# 5867
39.9591504,-75.1481192,ChIJyfqOvfvJxokRlOVEr1xMhAU,456 North 5th St.,Philadelphia,PA,19123,,# 17732
39.9382786,-75.1675345,ChIJO3g0lRfGxokR7jgMDv1z_64,1000 South Broad St,Philadelphia,PA,19146,,# 17741
40.0345378,-75.0634012,ChIJt7Po-oK2xokRky9DS2j2S4A,6501 Harbison Avenue,Philadelphia,PA,19149,215-333-4300,# 371
39.9522188,-75.1932137,ChIJwcw7f1rGxokRlP7WsqKm6gk,"3401 Walnut St., University Of Pennsylvania",Philadelphia,PA,19104,215-662-1333,# 450
40.069241,-75.0060221,ChIJmRUtgnCzxokRssqkt3TAGBU,3331 Grant Ave.,Philadelphia,PA,19114,215-464-2636,# 2170
40.0547775,-75.054863,ChIJ8fvvWRu0xokRSSAa_XrShdU,7720 Bustleton Avenue,Philadelphia,PA,19152,215-342-1091,# 7184
40.0453176,-75.1289073,ChIJD5BjgxK3xokR0BQ_OnriNpY,6150 N 5th Street,Philadelphia,PA,19120,215-548-1110,# 771
40.0885023,-74.9698052,ChIJY5PbkSyzxokRv3_0rojirmM,12301 Knights Road,Philadelphia,PA,19154,215-268-1010,# 11404
40.062803,-75.0843666,ChIJH73IILa2xokRll7NiDHEWw8,"7350 Oxford Avenue, Suite C",Philadelphia,PA,19111,215-342-7700,# 2689
40.1026993,-75.010502,ChIJoXcI8f6yxokRI4nByzZLTmU,11000 Roosevelt Blvd Ste 3,Philadelphia,PA,19116,,# 16932
39.9616047,-75.1726872,ChIJ5z5BbMvHxokR27XXVFuDItQ,2001 Pennsylvania Avenue,Philadelphia,PA,19130,,# 17704
39.9244293,-75.1459644,ChIJX6qKAa_IxokR5S8meoQGgNA,1 Mifflin St,Philadelphia,PA,19148,,# 16775
39.9314337,-75.1604723,ChIJoRUwgRvGxokRtOgyiFz2p74,1405 South 10th Street,Philadelphia,PA,19147,215-465-2130,# 1913
40.0511908,-75.059472,ChIJrfys3x20xokR0_PBSC2n4LE,7400 Bustleton Ave,Philadelphia,PA,19152,,# 17475
39.949275,-75.1606066,ChIJ3dimUS_GxokRlPybBibe1Uk,1201 Walnut St,Philadelphia,PA,19107,215-861-8586,# 11170
39.9787836,-75.1530332,Ei0xNzE3IE4gMTJ0aCBTdCBmLCBQaGlsYWRlbHBoaWEsIFBBIDE5MTIyLCBVU0EiHRobChYKFAoSCa3mFrgKyMaJEcgQcNxCi0ZsEgFm,"1717 North 12th Street, Unit F",Philadelphia,PA,19122,215-235-2001,# 11371
39.9422888,-75.144959,ChIJG8pvJZrIxokRALvTuQy62Es,421 South Second St.,Philadelphia,PA,19147,215-627-3983,# 2583
40.0689852,-75.0666815,ChIJC9A2g1SxxokRcQE6BYKANIk,1301 Rhawn St.,Philadelphia,PA,19111,215-342-1445,# 780
40.0929012,-75.0308589,ChIJWYrypLCzxokRGaYCPp37WWU,9875 Bustleton Avenue,Philadelphia,PA,19115,215-969-8750,# 660
40.1122896,-75.0229175,ChIJq6raY1qyxokRCiUp-Cwqi4o,10901c Bustleton Avenue,Philadelphia,PA,19116,215-677-2122,# 740
39.9503413,-75.1453259,ChIJR9tBtoXIxokRYE3BPV12XVw,259 Market St.,Philadelphia,PA,19106,215-625-3740,# 10526
39.9764526,-75.1202484,EjMyNjQwIEUgQ3VtYmVybGFuZCBTdCBhLCBQaGlsYWRlbHBoaWEsIFBBIDE5MTI1LCBVU0EiHRobChYKFAoSCQOz9805yMaJEbG8xp6BUOWZEgFh,"2640 E. Cumberland St., N/a",Philadelphia,PA,19125,215-291-8315,# 2255
40.1344648,-75.010059,ChIJsdgZyoayxokRT02ho99tWnA,15500 Bustleton Avenue,Philadelphia,PA,19116,215-677-8593,# 2299
39.962312,-75.1622899,ChIJA61su9PHxokRymYhSAxFJ0M,"490 North Broad St, Suite 100",Philadelphia,PA,19130,215-430-5757,# 11177
39.9431399,-75.1598941,ChIJKVy-WyHGxokROgnAHWouQyk,"1051 South St, South Street S/c",Philadelphia,PA,19147,215-829-0670,# 826
39.9445358,-75.1504047,ChIJL39ZXJzIxokRUWsJEXmwvFc,314 South 5th Street,Philadelphia,PA,19106,215-923-1289,# 11136
40.9020953,-78.2293688,ChIJK3j2EZQTzIkR8045nN1DEfM,815 N. Front St.,Philipsburg,PA,16866,814-342-2646,# 1919
40.1323757,-75.5377689,ChIJT4qrcgaOxokREg2CO_ZxW3c,130 Schuylkill Rd.,Phoenixville,PA,19460,610-933-7487,# 1401
40.1307477,-75.4532331,ChIJWY-DuEORxokRfhUj_0cn6qA,200 Mill Road,Phoenixville,PA,19460,,# 16635
40.3475486,-80.0550313,ChIJy1swmEr4NIgRWUvs0gdEa5Q,1740 Washington Rd,Pittsburgh,PA,15241,412-833-0545,# 4051
40.446427,-80.1834961,ChIJvQHsFVlZNIgRkFyZz7XYJpQ,600 Chauvet Dr,Pittsburgh,PA,15275,,# 16572
40.4437859,-79.9276214,ChIJA_WSYgTyNIgRf4IkKEzYZas,5600 Wilkins Ave,Pittsburgh,PA,15217,412-521-5690,# 4152
40.5257522,-80.007496,ChIJ89QOtaqMNIgRdXXtuCeiqDo,4801 Mcknight Rd Ste 3,Pittsburgh,PA,15237,,# 17279
40.3914344,-80.0383852,ChIJ_XY6wxP3NIgRbemuan02ob8,3075 W. Liberty Ave.,Pittsburgh,PA,15216,412-341-2269,# 4144
40.5356301,-80.0685095,ChIJPQhHIcyKNIgReONf5P5thSA,288 Mt Nebo Pointe Dr,Pittsburgh,PA,15237,,# 17165
40.4390421,-80.0698161,ChIJjdCwDG72NIgRnCZ-fKG6p0k,"70 W. Steuben St., Crafton-ingram Shopping Center",Pittsburgh,PA,15205,412-921-2060,# 4002
40.5846512,-80.0383905,ChIJ0drYnbmLNIgRtJ969LpXmrs,9805 Mcknight Rd,Pittsburgh,PA,15237,,# 16573
40.395995,-80.023518,ChIJFdtrzST3NIgR7_zhwZ37nyg,510 Brookline Blvd.,Pittsburgh,PA,15226,412-531-2190,# 3189
40.4598918,-79.8421479,ChIJCW3s7G_sNIgRvxSFzZsSvbM,10600 Frankstown Rd.,Pittsburgh,PA,15235,412-241-3348,# 4070
40.4145805,-79.922637,ChIJUZmM-d7xNIgRnPNWPKpzd2M,4664 Browns Hill Rd.,Pittsburgh,PA,15217,412-521-3059,# 10767
40.4389763,-79.9603888,ChIJv-Aw5IDxNIgRdVx6-8fuSMk,3422 Forbes Avenue,Pittsburgh,PA,15213,412-687-4181,# 2348
40.3431158,-79.9705287,ChIJNcZaJmf6NIgRBesfQQ8gxQo,5242 Clairton Boulevard,Pittsburgh,PA,15236,412-885-5864,# 2333
40.439803,-79.998569,ChIJTZPzRVfxNIgRenj4gxXjlk8,482 Smithfield St,Pittsburgh,PA,15219,,# 17825
40.3437057,-80.0568103,ChIJwQNRYkz4NIgRRDXbZ096MQI,201 S Hills Vlg,Pittsburgh,PA,15241,,# 17638
40.4516718,-79.9515338,ChIJjbCalDryNIgR3gBpTF6d5n0,4610 Centre Ave.,Pittsburgh,PA,15213,412-683-8827,# 4369
40.5678543,-80.0232318,ChIJ0RTYhJ2LNIgRyauCGTTRyYk,611 Duncan Ave.,Pittsburgh,PA,15237,412-358-8690,# 10034
40.4609096,-79.9211941,ChIJYfT5unXyNIgRbp8EMNMdhFY,6231 Penn Ave,Pittsburgh,PA,15206,,# 17618
40.348034,-79.9540689,ChIJiaD-wY_6NIgRyJ9GmfZDjqo,1717 Lebanon Church Rd,Pittsburgh,PA,15236,,# 16617
40.4407114,-80.0010683,ChIJORPe51bxNIgRk9We3VV-KyA,242-250 Fifth Ave,Pittsburgh,PA,15222,412-566-2619,# 4008
40.5386996,-79.8370053,ChIJ5c-5WGSTNIgRPokk2BF2pBY,2661 Freeport Rd,Pittsburgh,PA,15238,,# 17448
41.3210241,-75.7926957,ChIJ703CHiUfxYkRQwYQyHYBmP4,351 Kennedy Blvd,Pittston,PA,18640,570-883-7846,# 2729
41.2417701,-75.9427405,ChIJ68T_mU0QxYkRcHBrGKvNRKk,125 East Main Street,Plymouth,PA,18651,570-779-5334,# 1585
40.1096601,-75.2727887,ChIJHc1ibT68xokR1nxkaMWRysk,2400 Butler Pike,Plymouth Meeting,PA,19462,610-941-1291,# 10825
40.1052479,-75.2962093,ChIJcSNs6dK9xokR6kysdvHsiFY,2250 Chemical Rd,Plymouth Meeting,PA,19462,,# 16616
41.1174617,-75.380248,ChIJz47T3vPyxIkR9Vmilmf-zu4,"3016 Route 940, Po Box 2320",Pocono Summit,PA,18346,570-839-6670,# 342
40.2361783,-75.6616066,ChIJS-eLKjKGxokRtCnI7lSaOhI,"351 W. Schuylkill Rd., Bldg 4",Pottstown,PA,19465,610-970-7388,# 1048
40.2648046,-75.6267318,ChIJp5EfHYSGxokR3C2OaoMGm0I,"1300 N. Charlotte Street, North End Shopping Center",Pottstown,PA,19464,610-326-6949,# 1307
40.2693779,-75.6569933,ChIJOU2HGfmGxokRgbcqE-WyiGQ,100 Upland Square Dr,Pottstown,PA,19464,,# 17572
40.2444704,-75.6087604,ChIJR_t_1sSFxokROtak-SrBNm0,1833 East High Street,Pottstown,PA,19464,610-327-2020,# 305
40.6372705,-76.1827717,EioyMTIgUG90dHN2aWxsZSBTdCwgQ3Jlc3NvbmEsIFBBIDE3OTI5LCBVU0EiMRIvChQKEgkB7GNtMu_FiRF_SNux3FExxBDUASoUChIJsTja9jDvxYkROtqOQomqojY,212 Pottsville St.,Pottsville,PA,17901,570-385-4201,# 1323
40.6868103,-76.1938148,ChIJrWbrG6fuxYkRTAlPoaYciT4,28 North Claude A Lord Blvd,Pottsville,PA,17901,570-429-0215,# 1324
39.8838635,-75.3036357,ChIJKYu6reXCxokRxbHuvQm3Mmo,702 Chester Pike,Prospect Park,PA,19076,610-237-3851,# 2552
40.4167492,-75.3429032,ChIJT4ECv_0hxIkRCnhdUBmsqig,1101 Southwest End Blvd.,Quakertown,PA,18951,215-536-0414,# 1315
40.45863,-75.373127,ChIJfYx7HVsixIkRqoepNaAkaM8,610 N West End Blvd,Quakertown,PA,18951,,# 17321
40.3280691,-75.8927433,ChIJ_T6e9AN6xokR5vS-HdAAuN8,2239 Perkiomen Ave.,Reading,PA,19606,610-779-7939,# 10045
40.3857583,-75.9284509,ChIJHWqYZqN3xokRGY68Jd4lOVQ,3498 N. 5th Street Hwy.,Reading,PA,19605,610-929-9864,# 1321
40.3087958,-75.8593868,ChIJh5lbATZ6xokRukS2EykN828,4599 Perkiomen Ave,Reading,PA,19606,,# 17557
40.3127692,-75.9485547,ChIJD6Pkrx1xxokRzqHQRcf90as,1303 Lancaster Ave.,Reading,PA,19607,610-796-3103,# 3242
40.3347797,-75.9260931,ChIJYzQqAstwxokR8Ag9iBCB-Lc,544 Penn St.,Reading,PA,19602,610-376-3438,# 4064
40.3656331,-75.9148404,ChIJWdxy1nF3xokRonb4Se_NESM,2001 North 11th Street,Reading,PA,19604,610-921-1200,# 5734
39.9169927,-76.6288614,ChIJ52AzJT2GyIkRXceHCdkVpl8,723 Lombard Road,Red-Lion,PA,17356,717-244-4501,# 7275
40.2164934,-75.0115525,ChIJgRHP4YCsxokRRdgpqlv1G2M,1034 Second Street Pike,Richboro,PA,18954,215-322-4060,# 813
40.0543949,-80.0035456,EhtVUy00MCwgQ2VudGVydmlsbGUsIFBBLCBVU0EiLiosChQKEgkFxzNhtI3ChxH3VJL6rxCp2BIUChIJ-2-tu-MFNYgRQ_zYHN3XWOc,"Us Hwy 40 / Po Box 496, East",Richeyville,PA,15358,724-632-6555,# 3971
39.8777464,-75.3165741,ChIJH3qtF8DCxokRJ3hXk8epWqs,410 East Chester Pike,Ridley-Park,PA,19078,610-532-2400,# 766
40.1972558,-75.535176,ChIJZTjpyOSPxokRnSBCXtgbINU,342 N. Lewis Rd.,Royersford,PA,19468,610-792-1901,# 2730
41.9924302,-76.5285825,ChIJm-ULAOEL0IkRVXR6zQlZpjs,430 Keystone Ave,Sayre,PA,18840,570-888-7763,# 1091
40.6551125,-75.5996225,ChIJ7cxbnYo2xIkRcxMluLxF5vA,3943 Route 309,Schnecksville,PA,18078,610-799-6402,# 2507
40.2339909,-75.4013756,ChIJjUNd7giZxokRhuUn47b0pi8,4290 Township Line Rd.,Schwenksville,PA,19473,610-222-2563,# 2350
41.4319233,-75.6588568,ChIJbV-sXyLZxIkRJNDeXs0DX70,110 Green Ridge Street,Scranton,PA,18509,570-344-7400,# 1593
41.3969584,-75.6489025,ChIJ2zwHRsHexIkR_JLPMcz2N8o,1101 Moosic St.,Scranton,PA,18505,570-347-6991,# 1611
41.3783107,-75.6932768,ChIJafGR05_fxIkRVPDNItcLtp4,509 Davis Street,Scranton,PA,18505,570-341-3790,# 6790
39.9180789,-75.3025422,Ei05MjcgUHJvdmlkZW5jZSBSZCAjOTI3LCBTZWNhbmUsIFBBIDE5MDE4LCBVU0EiHxodChYKFAoSCSMGKjg2wsaJEVKquFvP2BBiEgM5Mjc,"927 Providence Road, 927 Providence Road",Secane,PA,19018,610-284-3270,# 1046
40.8113431,-76.8569162,ChIJ3ZW-kqY_z4kRBkzsIv3K74Y,1000 North Market Street,Selinsgrove,PA,17870,570-374-2764,# 1577
40.8423928,-76.8379544,ChIJbQ-7QVk_z4kRPkw3BOLSlNw,501 Market Place Blvd,Selinsgrove,PA,17870,,# 17495
40.7907799,-76.5570645,ChIJCSQ-pN1dz4kRaAAoyR3vl4w,12 West Independence Street,Shamokin,PA,17872,570-648-6441,# 1894
39.9124399,-75.2686418,ChIJt-piK5XDxokRFaT6tegENTI,702 Chester Pike,Sharon Hill,PA,19079,610-586-1294,# 2514
41.1532137,-76.1497968,ChIJ-wH023N0xYkR2brmv-Ckza8,1 North Main Street,Shickshinny,PA,18655,570-542-4250,# 1583
40.0584884,-77.5085953,ChIJkVljYWcMyYkRHTQ0XJgDODM,701 E. King St.,Shippensburg,PA,17257,717-530-1401,# 5726
40.5064737,-75.9667346,ChIJ6a77fd7bxYkRvC7NvoKB8QA,1054 Shoemaker Avenue,Shoemakersville,PA,19555,610-562-2454,# 1319
39.7530729,-76.6779971,ChIJo31Td_BkyIkRfU0ESOH2ezg,606 South Main St.,Shrewsbury,PA,17361,717-235-4618,# 5723
40.3209963,-76.01063,ChIJBdkGosZzxokRB5HEq_wp0YM,3100 Shillington Rd,Sinking Spring,PA,19608,610-678-9054,# 1923
40.007906,-79.0747887,ChIJ3x-vkE_cyokR7TJ7l7mAcsE,110 South Pleasant Avenue,Somerset,PA,15501,814-443-1634,# 5720
40.3113921,-75.3548363,ChIJnSdoEZufxokR6s_GH2hEYsY,409 Harleysville Pike,Souderton,PA,18964,215-721-1050,# 2479
40.3155425,-75.3113806,ChIJhyrU3EOgxokRdkrriesylDk,700 Rte 113,Souderton,PA,18964,215-799-2341,# 2879
41.2316732,-77.0012965,ChIJJ19rcSWmz4kR72jyHyg1lr0,518 Southern Avenue,South Williamsport,PA,17702,570-323-6090,# 1613
40.1823143,-75.5661059,ChIJ0UHFmqWPxokRyQpWYSuupFA,3425 Schuylkill Rd.,Spring City,PA,19475,610-792-2061,# 4772
39.9147751,-75.3336111,ChIJJwp1a3HCxokRazvjKmU_yi0,857 Baltimore Pike,Springfield,PA,19064,,# 16500
39.9152213,-75.3500623,ChIJWUIx_9rpxokRZFchAjf_o24,1200 Baltimore Pike,Springfield,PA,19064,,# 17379
39.9164874,-75.3325634,ChIJW3oPzXPCxokRDJEtO28h6zE,795 Baltimore Pike,Springfield,PA,19064,610-690-5100,# 2582
39.9220633,-75.3204794,ChIJN0oArBXCxokRnxJz1nuU6ak,"334 Baltimore Pike, The Sparns Center",Springfield,PA,19064,610-543-1765,# 722
40.1871332,-75.2288085,ChIJqwhkQL6kxokRixaun0AhtyI,901 Sumneytown Pike,Spring House,PA,19477,215-646-5089,# 10493
40.8131335,-77.9069252,ChIJCd3GweenzokR2nO-jrEZBlM,315 Colonnade Blvd,State College,PA,16803,,# 16632
40.784647,-77.8358794,ChIJd4ooJU2vzokRPv7rJkSWgWs,1630 South Atherton St.,State College,PA,16801,814-237-1479,# 1688
40.7924987,-77.8619075,ChIJ0UOd-piozokRx05FK9JlwkE,201 West Beaver Ave.,State College,PA,16801,,# 17689
40.8016834,-77.879468,ChIJd6ylhiqmzokRdyu4z9PpX1k,1101 N Atherton St,State College,PA,16803,814-234-4761,# 1916
40.7939559,-77.8617846,ChIJG5Mh0JiozokRhcAql0KtuLk,116 West College Ave,State College,PA,16801,814-238-6797,# 5459
40.9886409,-75.2183243,ChIJXQz187uJxIkRXXy-QkISdHc,1111 North 9th St.,Stroudsburg,PA,18360,570-421-2703,# 1312
40.9970232,-75.2451005,ChIJJcaczIeJxIkRvnix0wPLmys,155 Pocono Commons,Stroudsburg,PA,18360,,# 16608
40.8663511,-76.7890572,ChIJO268r_Fqz4kRIvENFZd3gNk,405 N. Fourth St.,Sunbury,PA,17801,570-286-0739,# 1592
41.9463375,-75.6050321,ChIJ2T2mXw4i24kRFdWLPPpOiy4,177 Erie Boulevard,Susquehanna,PA,18847,570-853-0901,# 11422
39.8882337,-75.3546541,ChIJofeEnjzoxokRNT23hzzXpvE,755 S. Chester Rd.,Swarthmore,PA,19081,610-328-9160,# 743
40.4216558,-79.8892255,ChIJJx-i8G7uNIgRfC1XG24ZzP0,7406 Church Street,Swissvale,PA,15218,412-271-6733,# 4091
41.039738,-75.3058098,EjFQQS02MTEgJiBPbGQgTWlsbCBSZCwgVGFubmVyc3ZpbGxlLCBQQSAxODM3MiwgVVNBImYiZAoUChIJ08RD53GLxIkRVWBHluKQSBwSFAoSCdPEQ-dxi8SJEVVgR5bikEgcGhQKEgn1dB8V2xbEiRFShxB8z3-s0BoUChIJ3wPwG22LxIkRHDaNfu_p9fEiCg3EKnYYFc4-HdM,"413 Rr 1, Rte 611, Route 611 And Old Mill Road",Tannersville,PA,18372,570-629-8554,# 1942
40.397834,-75.929449,ChIJiWjkUMd3xokRiiZxDtIC938,4220 N 5th Street Hwy,Temple,PA,19560,,# 17370
39.9935833,-75.7639578,ChIJ443-BCtZxokRQGy9YwD601M,3015 E. Lincoln Highway,Thorndale,PA,19372,610-380-7180,# 7132
41.6274431,-79.672725,ChIJ78k2qDjDMogRn-eaZKxnV9I,110 East Central Avenue,Titusville,PA,16354,814-827-4631,# 5097
41.7838924,-76.4497576,ChIJFXzzOYeq2okRx9yf2Eg3NUM,110 Reuter Blvd,Towanda,PA,18848,570-268-0269,# 2565
41.5372785,-75.9465784,ChIJgYoe94cwxYkRBWJBLC3gZtE,50 Bridgest.,Tunkhannock,PA,18657,570-836-6777,# 1617
40.4062035,-79.8232635,ChIJte6sYzbpNIgRMrQrDESUnU0,237 Monroeville Ave,Turtle Creek,PA,15145,412-824-5137,# 7612
39.9078527,-79.7587381,ChIJ4RImFpcVNYgRHOF5kOrDMr0,120 Matthew Dr,Uniontown,PA,15401,,# 17264
39.9024284,-79.7272804,ChIJ0wyRajA-NYgRFgT-_zlUlOU,25 Pittsburgh St.,Uniontown,PA,15401,724-438-5443,# 4256
40.1996518,-75.0706055,ChIJRXxA6ZquxokR7wR_stoGgRQ,30000 Ann's Choice Way,Warminster,PA,18974,215-347-2097,# 48564
40.2033037,-75.0938003,Eio0NDUgVyBTdHJlZXQgUmQsIFdhcm1pbnN0ZXIsIFBBIDE4OTc0LCBVU0EiMRIvChQKEgkvuvCp767GiRHFwHkAweGPFRC9AyoUChIJPxW34oyuxokR0J-HEbR7obQ,445 West Street Rd.,Warminster,PA,18974,215-674-2297,# 5914
40.1902824,-75.1022679,ChIJ4x4U2VWuxokRMyJOJuDfIKA,7 York Road,Warminster,PA,18974,215-443-8113,# 658
41.8442561,-79.1444386,ChIJDQlS8PlEzYkRJHai02XRCc8,"100 Market St.,",Warren,PA,16365,814-726-1914,# 5093
40.2237688,-75.1364781,ChIJl2KshUavxokR0ofujvWLMTc,401 Easton Rd,Warrington,PA,18976,,# 16554
40.1713383,-80.2500755,ChIJOcr_v7ytNYgRFNEewws3zhM,175 W. Beau Street,Washington,PA,15301,724-222-0470,# 4245
40.0466087,-75.4052457,ChIJ2_4n_cOUxokRcmcP7c_u3Nk,629 West Lancaster Ave,Wayne,PA,19087,610-688-8583,# 10896
40.0431453,-75.3797926,ChIJt8qimiOVxokROzwr3l2wg9M,316 East Lancaster Avenue,Wayne,PA,19087,610-688-8852,# 370
39.7517896,-77.5715243,ChIJoYLIiS-WyYkRnkegtCQvLp4,406 E. Main St.,Waynesboro,PA,17268,717-762-1126,# 1642
39.8951453,-80.1631203,ChIJT1_nb96hNYgRRuWwhJT5Y-Y,3161 Mt. Morris Rd.,Waynesburg,PA,15370,724-627-8108,# 5700
41.750172,-77.2979109,ChIJCbYwNaMuzokRS15YC9dnmAw,9 Main St.,Wellsboro,PA,16901,570-724-4303,# 5011
39.9673868,-75.5772482,ChIJV4z-1H7xxokRxmFZ8afTg28,1040 West Chester Pike,West Chester,PA,19382,610-344-7469,# 10371
39.9638072,-75.6285374,ChIJcw3nM7H2xokRs0Cjx4s2s9k,760 Miles Rd.,West Chester,PA,19380,610-429-3477,# 1159
39.9019739,-75.5633771,ChIJSzaGcGXwxokREWTyIjg8zd0,1351 Wilmington Pike,West Chester,PA,19382,610-399-3961,# 2513
39.9189631,-75.5770208,ChIJ4TxhVvbwxokRuCBr27TLoJI,1200 Wilmington Pike,West Chester,PA,19382,610-399-3605,# 276
40.0105637,-75.616717,ChIJ-3WI7YbzxokRdOlIl6jJ6IE,1450 Pottstown Pike,West Chester,PA,19380,610-692-6393,# 3875
39.9901211,-75.5510966,ChIJfbGYH0DyxokRqb-MB3XEshA,1501 Paoli Pike,West Chester,PA,19380,610-692-6105,# 948
39.8229054,-75.8715957,ChIJq7P6WUFSxokRYLgLZvGMA7k,857 W Baltimore Pike,West Grove,PA,19390,610-869-5501,# 2784
40.6213692,-80.0537979,EisxMTI0MCBQZXJyeSBId3kgIzE5LCBXZXhmb3JkLCBQQSAxNTA5MCwgVVNBIh4aHAoWChQKEglFHoFenYk0iBHF2gO32Pmc7RICMTk,"11240 Perry Highway, Route 19",Wexford,PA,15090,724-935-7890,# 2449
40.6418205,-75.4729555,ChIJTT87Uvw4xIkRRn1LZYUIU3w,1225 Third Street,Whitehall,PA,18052,484-488-0001,# 11084
41.2403913,-75.8926525,ChIJtfWFFYQaxYkRJYXvLeybQsM,351 S. Main St.,Wilkes Barre,PA,18701,570-825-3215,# 1591
41.2328481,-75.9198765,ChIJI3ngqmsQxYkRqHB3Z1lA0rY,702 Sans Souci Pkwy.,Wilkes Barre,PA,18706,570-825-9811,# 1614
41.2374674,-75.8448618,ChIJOyh3VgYbxYkR8gr2fZoLl08,3400 Wilkes-barre Township Commons,Wilkes Barre,PA,18702,,# 16966
41.2536897,-77.0439678,ChIJ5d63JMWoz4kRPqVbLPzaqww,1849 Lycoming Creek Road,Williamsport,PA,17701,570-323-1338,# 1598
40.1478306,-75.1289225,Ei0yODcwIE1vcmVsYW5kIFJkLCBXaWxsb3cgR3JvdmUsIFBBIDE5MDkwLCBVU0EiMRIvChQKEgkZh2dRIrDGiRGrSPyPeQjzwhC2FioUChIJm07kyhiwxokRAbhZpZXqCJw,2870 Moreland Road,Willow Grove,PA,19090,215-658-1465,# 2530
40.838467,-75.2960132,ChIJXf82vrRnxIkRfXN4KV-x1SU,855 S. Broadway,Wind Gap,PA,18091,610-863-5341,# 5879
40.3617591,-76.1841139,ChIJ25SVBKsKxokRPEFIh5jppnk,2800 Conrad Weisser Parkway,Womelsdorf,PA,19567,610-589-4417,# 2969
39.8768789,-75.3449528,ChIJcbouJhzoxokRYbixEWwgQ7Y,1306 Macdade Blvd.,Woodlyn,PA,19094,610-521-7011,# 2785
40.075979,-75.154607,ChIJj1e5Kv65xokRSru5ktKu3Es,2450 Shoppers Ln,Wyncote,PA,19095,,# 17555
40.0019361,-75.2771272,ChIJ6W53KpHAxokRRtdkUDHd8Fg,339 E. Lancaster Ave.,Wynnewood,PA,19096,610-649-1391,# 10377
41.3015825,-75.8501977,ChIJn8XHHgsZxYkR1LbanNoTf_8,"1096 Wyoming Ave, Midway S/c",Wyoming,PA,18644,570-693-0280,# 1588
40.3601233,-75.9835145,ChIJNdhPcqN2xokRISHdqheC8nk,2769 Papermill Rd,Wyomissing,PA,19610,,# 16577
40.243135,-74.8384222,ChIJPXpaolBWwYkR9HAb0eoysjM,"16 East Afton Ave., Cramer Center",Yardley,PA,19067,215-321-8355,# 1947
40.2243605,-74.8724533,EjUxNjc1IFlhcmRsZXkgTGFuZ2hvcm5lIFJkLCBNb3JyaXN2aWxsZSwgUEEgMTkwNjcsIFVTQSIxEi8KFAoSCWeLLzeeVsGJEQwFNRcE3uYtEIsNKhQKEglBaeIHm1bBiREW79I1MBNHZA,"1675 Yardley-langhorne Road, Corner Of Mirror Lake",Yardley,PA,19067,215-321-2461,# 2223
40.2325047,-74.8350743,EjAxMDEgT3hmb3JkIFZhbGxleSBSZCwgTW9ycmlzdmlsbGUsIFBBIDE5MDY3LCBVU0EiMBIuChQKEgkHOhds-VbBiREIHG90Q3DnUxBlKhQKEgl1S6Qa-1bBiRHyGO4vA0xfuw,101 Oxford Valley Rd,Yardley,PA,19067,215-321-3303,# 5490
39.9235546,-75.2561551,ChIJgcverPvDxokR3kPzlQKsMx4,101 Chester Avenue,Yeadon,PA,19050,610-461-2171,# 460
39.9845818,-76.7358616,ChIJzUM2simMyIkRUrGi5jVmwrw,1700 North George Street,York,PA,17404,717-848-6212,# 1654
39.9359153,-76.693334,ChIJD8Bk_SWJyIkRqm8aPpFMi3w,2080 S. Queen St.,York,PA,17403,717-845-1633,# 1657
39.9875707,-76.6811317,ChIJKfJPhamPyIkR7sfA9-cjg2A,2610 Pleasant Valley Rd,York,PA,17402,,# 16576
39.9646599,-76.7786566,ChIJRfEFcn2MyIkRia3CxLK07Po,2251 York Crossing Dr,York,PA,17408,,# 16995
39.9604948,-76.660989,ChIJCZ_bqUGPyIkRAQk2VuHTAaA,820 Edgewood Road,York,PA,17402,717-757-6252,# 4215
39.9534439,-76.74781,ChIJWTDJLQiMyIkR5lTzAZxE1h0,165 South Richland Avenue,York,PA,17404,717-843-4730,# 7677
40.2762234,-75.4798954,ChIJ9R_c84GbxokR9DNwid7ypkg,1206 N. Gravel Pike,Zieglersville,PA,19492,610-287-1032,# 7259
